NORAD_CAT_ID,OBJECT_NAME,OBJECT_TYPE,EPOCH,MEAN_MOTION,ECCENTRICITY,INCLINATION,RA_OF_ASC_NODE,ARG_OF_PERICENTER,MEAN_ANOMALY,BSTAR,MEAN_MOTION_DOT,MEAN_MOTION_DDOT,TLE_LINE0,TLE_LINE1,TLE_LINE2,SEMIMAJOR_AXIS,PERIOD,APOGEE,PERIGEE,DECAYED
52103.0,STARLINK-3705,PAYLOAD,2023-11-09 09:16:10,15.08852174,0.0001231,53.2187,300.7706,78.8226,281.2905,0.00045175,6.911e-05,0.0,0 STARLINK-3705,1 52103U 22029R   23313.38623662  .00006911  00000-0  45175-3 0  9996,2 52103  53.2187 300.7706 0001231  78.8226 281.2905 15.08852174 92269,6917.843,95.437,540.56,538.857,0.0
52103.0,STARLINK-3705,PAYLOAD,2023-11-10 04:20:49,15.08843037,0.0001406,53.2178,297.2015,96.259,263.8562,0.0001103,1.468e-05,0.0,0 STARLINK-3705,1 52103U 22029R   23314.18113159  .00001468  00000-0  11030-3 0  9995,2 52103  53.2178 297.2015 0001406  96.2590 263.8562 15.08843037 92380,6917.871,95.437,540.709,538.763,0.0
52103.0,STARLINK-3705,PAYLOAD,2023-11-10 05:56:12,15.08848281,0.0001377,53.2179,296.9048,92.5696,267.5454,0.00010687,1.414e-05,0.0,0 STARLINK-3705,1 52103U 22029R   23314.24736926  .00001414  00000-0  10687-3 0  9993,2 52103  53.2179 296.9048 0001377  92.5696 267.5454 15.08848281 92394,6917.855,95.437,540.673,538.767,0.0
52103.0,STARLINK-3705,PAYLOAD,2023-11-10 15:28:31,15.08845205,0.0001442,53.2172,295.1211,93.4152,266.7005,-7.2565e-05,-1.443e-05,0.0,0 STARLINK-3705,1 52103U 22029R   23314.64480634 -.00001443  00000-0 -72565-4 0  9997,2 52103  53.2172 295.1211 0001442  93.4152 266.7005 15.08845205 92453,6917.864,95.437,540.727,538.732,0.0
52103.0,STARLINK-3705,PAYLOAD,2023-11-11 04:11:37,15.08840198,0.0001798,53.2201,292.7467,110.6122,249.5063,-0.0001302,-2.36e-05,0.0,0 STARLINK-3705,1 52103U 22029R   23315.17473784 -.00002360  00000-0 -13020-3 0  9993,2 52103  53.2201 292.7467 0001798 110.6122 249.5063 15.08840198 92533,6917.88,95.438,540.989,538.501,0.0
52103.0,STARLINK-3705,PAYLOAD,2023-11-11 05:47:00,15.08842582,0.0001543,53.2187,292.444,96.9739,263.1429,-0.00014037,-2.521e-05,0.0,0 STARLINK-3705,1 52103U 22029R   23315.24097511 -.00002521  00000-0 -14037-3 0  9999,2 52103  53.2187 292.4440 0001543  96.9739 263.1429 15.08842582 92540,6917.872,95.437,540.805,538.67,0.0
52103.0,STARLINK-3705,PAYLOAD,2023-11-11 21:40:51,15.0883533,0.0001656,53.2191,289.4722,98.3578,261.7602,7.5792e-05,9.18e-06,0.0,0 STARLINK-3705,1 52103U 22029R   23315.90337587  .00000918  00000-0  75792-4 0  9994,2 52103  53.2191 289.4722 0001656  98.3578 261.7602 15.08835330 92647,6917.895,95.438,540.905,538.614,0.0
52103.0,STARLINK-3705,PAYLOAD,2023-11-12 07:13:10,15.08841423,0.0001683,53.2179,287.6874,96.9185,263.1999,0.00012345,1.677e-05,0.0,0 STARLINK-3705,1 52103U 22029R   23316.30081268  .00001677  00000-0  12345-3 0  9998,2 52103  53.2179 287.6874 0001683  96.9185 263.1999 15.08841423 92701,6917.876,95.437,540.905,538.577,0.0
52103.0,STARLINK-3705,PAYLOAD,2023-11-12 15:10:05,15.08841598,0.0001616,53.2175,286.1997,95.9917,264.126,9.7749e-05,1.268e-05,0.0,0 STARLINK-3705,1 52103U 22029R   23316.63201316  .00001268  00000-0  97749-4 0  9990,2 52103  53.2175 286.1997 0001616  95.9917 264.1260 15.08841598 92755,6917.876,95.437,540.858,538.623,0.0
52103.0,STARLINK-3705,PAYLOAD,2023-11-13 02:17:48,15.08837771,0.0001554,53.2177,284.1184,92.4369,267.6802,0.00046104,7.057e-05,0.0,0 STARLINK-3705,1 52103U 22029R   23317.09569722  .00007057  00000-0  46104-3 0  9999,2 52103  53.2177 284.1184 0001554  92.4369 267.6802 15.08837771 92823,6917.887,95.438,540.827,538.677,0.0
52103.0,STARLINK-3705,PAYLOAD,2023-11-13 07:03:56,15.08854381,0.0001683,53.2172,283.2259,93.1005,267.018,0.0003485,5.265e-05,0.0,0 STARLINK-3705,1 52103U 22029R   23317.29440829  .00005265  00000-0  34850-3 0  9991,2 52103  53.2172 283.2259 0001683  93.1005 267.0180 15.08854381 92851,6917.836,95.437,540.866,538.537,0.0
52103.0,STARLINK-3705,PAYLOAD,2023-11-13 15:00:53,15.08839079,0.0002076,53.2173,281.7393,83.9422,276.1807,7.4043e-05,8.9e-06,0.0,0 STARLINK-3705,1 52103U 22029R   23317.62561637  .00000890  00000-0  74043-4 0  9997,2 52103  53.2173 281.7393 0002076  83.9422 276.1807 15.08839079 92901,6917.883,95.438,541.184,538.312,0.0
52103.0,STARLINK-3705,PAYLOAD,2023-11-14 06:54:44,15.08846565,0.0001518,53.2163,278.7638,87.4419,272.6747,0.00018286,2.624e-05,0.0,0 STARLINK-3705,1 52103U 22029R   23318.28801230  .00002624  00000-0  18286-3 0  9999,2 52103  53.2163 278.7638 0001518  87.4419 272.6747 15.08846565 93007,6917.86,95.437,540.775,538.675,0.0
52103.0,STARLINK-3705,PAYLOAD,2023-11-14 14:51:40,15.08840099,0.0001631,53.2166,277.2778,89.79,270.3279,0.00010323,1.355e-05,0.0,0 STARLINK-3705,1 52103U 22029R   23318.61921486  .00001355  00000-0  10323-3 0  9996,2 52103  53.2166 277.2778 0001631  89.7900 270.3279 15.08840099 93051,6917.88,95.438,540.873,538.617,0.0
52103.0,STARLINK-3705,PAYLOAD,2023-11-15 03:34:45,15.0884634,0.0001698,53.2183,274.8981,93.4667,266.6519,0.00016236,2.297e-05,0.0,0 STARLINK-3705,1 52103U 22029R   23319.14913354  .00002297  00000-0  16236-3 0  9995,2 52103  53.2183 274.8981 0001698  93.4667 266.6519 15.08846340 93133,6917.861,95.437,540.901,538.551,0.0
52103.0,STARLINK-3705,PAYLOAD,2023-11-15 14:42:27,15.08837521,0.0001716,53.2186,272.8179,87.1683,272.9506,5.3612e-05,5.65e-06,0.0,0 STARLINK-3705,1 52103U 22029R   23319.61281818  .00000565  00000-0  53612-4 0  9996,2 52103  53.2186 272.8179 0001716  87.1683 272.9506 15.08837521 93207,6917.888,95.438,540.94,538.566,0.0
52103.0,STARLINK-3705,PAYLOAD,2023-11-16 00:14:46,15.08840062,0.0001421,53.2164,271.0329,90.9192,269.1963,0.00019346,2.792e-05,0.0,0 STARLINK-3705,1 52103U 22029R   23320.01025776  .00002792  00000-0  19346-3 0  9990,2 52103  53.2164 271.0329 0001421  90.9192 269.1963 15.08840062 93266,6917.88,95.438,540.728,538.762,0.0
52103.0,STARLINK-3705,PAYLOAD,2023-11-16 20:54:47,15.08844771,0.0001328,53.2187,267.1676,93.3742,266.7402,0.00028095,4.187e-05,0.0,0 STARLINK-3705,1 52103U 22029R   23320.87137737  .00004187  00000-0  28095-3 0  9996,2 52103  53.2187 267.1676 0001328  93.3742 266.7402 15.08844771 93392,6917.866,95.437,540.649,538.812,0.0
52103.0,STARLINK-3705,PAYLOAD,2023-11-17 03:16:19,15.08848557,0.0001285,53.219,265.9783,93.9023,266.2117,0.00034393,5.191e-05,0.0,0 STARLINK-3705,1 52103U 22029R   23321.13633595  .00005191  00000-0  34393-3 0  9993,2 52103  53.2190 265.9783 0001285  93.9023 266.2117 15.08848557 93430,6917.854,95.437,540.608,538.83,0.0
52103.0,STARLINK-3705,PAYLOAD,2023-11-17 06:27:05,15.08850256,0.0001388,53.2184,265.383,96.3177,263.7974,0.00038941,5.917e-05,0.0,0 STARLINK-3705,1 52103U 22029R   23321.26881504  .00005917  00000-0  38941-3 0  9991,2 52103  53.2184 265.3830 0001388  96.3177 263.7974 15.08850256 93455,6917.849,95.437,540.674,538.754,0.0
52103.0,STARLINK-3705,PAYLOAD,2023-11-18 01:31:43,15.08839025,0.000153,53.2169,261.8129,95.9716,264.1451,9.6468e-05,1.248e-05,0.0,0 STARLINK-3705,1 52103U 22029R   23322.06369996  .00001248  00000-0  96468-4 0  9998,2 52103  53.2169 261.8129 0001530  95.9716 264.1451 15.08839025 93572,6917.883,95.438,540.807,538.69,0.0
52103.0,STARLINK-3705,PAYLOAD,2023-11-18 12:39:25,15.0884131,0.0001372,53.218,259.7347,86.5985,273.5164,0.000121,1.638e-05,0.0,0 STARLINK-3705,1 52103U 22029R   23322.52738037  .00001638  00000-0  12100-3 0  9998,2 52103  53.2180 259.7347 0001372  86.5985 273.5164 15.08841310 93644,6917.876,95.437,540.691,538.792,0.0
52103.0,STARLINK-3705,PAYLOAD,2023-11-18 20:36:21,15.08841199,0.0001424,53.2178,258.2484,90.7617,269.3539,0.00012721,1.737e-05,0.0,0 STARLINK-3705,1 52103U 22029R   23322.85858029  .00001737  00000-0  12721-3 0  9997,2 52103  53.2178 258.2484 0001424  90.7617 269.3539 15.08841199 93693,6917.877,95.437,540.727,538.757,0.0
52103.0,STARLINK-3705,PAYLOAD,2023-11-19 12:30:12,15.08847374,0.000154,53.2164,255.2732,83.8708,276.2459,0.00027782,4.137e-05,0.0,0 STARLINK-3705,1 52103U 22029R   23323.52097799  .00004137  00000-0  27782-3 0  9991,2 52103  53.2164 255.2732 0001540  83.8708 276.2459 15.08847374 93794,6917.858,95.437,540.788,538.657,0.0
52103.0,STARLINK-3705,PAYLOAD,2023-11-20 02:48:40,15.08842653,0.0001767,53.2184,252.6,93.4755,266.6439,0.00015945,2.251e-05,0.0,0 STARLINK-3705,1 52103U 22029R   23324.11714009  .00002251  00000-0  15945-3 0  9990,2 52103  53.2184 252.6000 0001767  93.4755 266.6439 15.08842653 93881,6917.872,95.437,540.96,538.515,0.0
52103.0,STARLINK-3705,PAYLOAD,2023-11-20 12:20:59,15.08844052,0.0001538,53.2172,250.8119,81.9786,278.1381,0.00011004,1.464e-05,0.0,0 STARLINK-3705,1 52103U 22029R   23324.51457825  .00001464  00000-0  11004-3 0  9991,2 52103  53.2172 250.8119 0001538  81.9786 278.1381 15.08844052 93947,6917.868,95.437,540.797,538.669,0.0
52103.0,STARLINK-3705,PAYLOAD,2023-11-21 04:14:50,15.0885414,0.0001649,53.2181,247.8381,94.9428,265.1752,0.00023437,3.445e-05,0.0,0 STARLINK-3705,1 52103U 22029R   23325.17697223  .00003445  00000-0  23437-3 0  9996,2 52103  53.2181 247.8381 0001649  94.9428 265.1752 15.08854140 94043,6917.837,95.437,540.843,538.561,0.0
52103.0,STARLINK-3705,PAYLOAD,2023-11-22 00:54:51,15.08843796,0.0001708,53.2174,243.9739,91.7017,268.4171,0.00012107,1.639e-05,0.0,0 STARLINK-3705,1 52103U 22029R   23326.03809832  .00001639  00000-0  12107-3 0  9998,2 52103  53.2174 243.9739 0001708  91.7017 268.4171 15.08843796 94174,6917.869,95.437,540.915,538.552,0.0
52103.0,STARLINK-3705,PAYLOAD,2023-11-22 04:05:37,15.08851708,0.0001671,53.2178,243.377,99.2304,260.8877,0.00025877,3.834e-05,0.0,0 STARLINK-3705,1 52103U 22029R   23326.17057499  .00003834  00000-0  25877-3 0  9994,2 52103  53.2178 243.3770 0001671  99.2304 260.8877 15.08851708 94191,6917.845,95.437,540.866,538.554,0.0
52103.0,STARLINK-3705,PAYLOAD,2023-11-23 00:45:38,15.08859776,0.0001814,53.2181,239.508,100.2558,259.8639,0.00050041,7.689e-05,0.0,0 STARLINK-3705,1 52103U 22029R   23327.03169020  .00007689  00000-0  50041-3 0  9997,2 52103  53.2181 239.5080 0001814 100.2558 259.8639 15.08859776 94321,6917.82,95.436,540.94,538.43,0.0
